<?xml version="1.0" encoding="UTF-8"?>
<ndm xmlns:xsi="http://www.w3.org/2001/XMLSchema-instance" xsi:noNamespaceSchemaLocation="https://sanaregistry.org/r/ndmxml_unqualified/ndmxml-2.0.0-master-2.0.xsd">
<omm id="CCSDS_OMM_VERS" version="2.0">
<header><CREATION_DATE/><ORIGINATOR/></header><body><segment><metadata><OBJECT_NAME>ONEWEB-0687</OBJECT_NAME><OBJECT_ID>2024-188B</OBJECT_ID><CENTER_NAME>EARTH</CENTER_NAME><REF_FRAME>TEME</REF_FRAME><TIME_SYSTEM>UTC</TIME_SYSTEM><MEAN_ELEMENT_THEORY>SGP4</MEAN_ELEMENT_THEORY></metadata><data><meanElements><EPOCH>2025-01-30T00:00:23.685696</EPOCH><MEAN_MOTION>14.83476413</MEAN_MOTION><ECCENTRICITY>.000351</ECCENTRICITY><INCLINATION>86.5791</INCLINATION><RA_OF_ASC_NODE>126.8255</RA_OF_ASC_NODE><ARG_OF_PERICENTER>193.8251</ARG_OF_PERICENTER><MEAN_ANOMALY>166.2877</MEAN_ANOMALY></meanElements><tleParameters><EPHEMERIS_TYPE>0</EPHEMERIS_TYPE><CLASSIFICATION_TYPE>U</CLASSIFICATION_TYPE><NORAD_CAT_ID>61595</NORAD_CAT_ID><ELEMENT_SET_NO>999</ELEMENT_SET_NO><REV_AT_EPOCH>1633</REV_AT_EPOCH><BSTAR>.71464E-3</BSTAR><MEAN_MOTION_DOT>.5898E-4</MEAN_MOTION_DOT><MEAN_MOTION_DDOT>0</MEAN_MOTION_DDOT></tleParameters></data></segment></body></omm>
<omm id="CCSDS_OMM_VERS" version="2.0">
<header><CREATION_DATE/><ORIGINATOR/></header><body><segment><metadata><OBJECT_NAME>ONEWEB-0688</OBJECT_NAME><OBJECT_ID>2024-188C</OBJECT_ID><CENTER_NAME>EARTH</CENTER_NAME><REF_FRAME>TEME</REF_FRAME><TIME_SYSTEM>UTC</TIME_SYSTEM><MEAN_ELEMENT_THEORY>SGP4</MEAN_ELEMENT_THEORY></metadata><data><meanElements><EPOCH>2025-01-29T07:53:50.372736</EPOCH><MEAN_MOTION>14.83470269</MEAN_MOTION><ECCENTRICITY>.0002851</ECCENTRICITY><INCLINATION>86.5799</INCLINATION><RA_OF_ASC_NODE>127.1339</RA_OF_ASC_NODE><ARG_OF_PERICENTER>195.2187</ARG_OF_PERICENTER><MEAN_ANOMALY>164.8951</MEAN_ANOMALY></meanElements><tleParameters><EPHEMERIS_TYPE>0</EPHEMERIS_TYPE><CLASSIFICATION_TYPE>U</CLASSIFICATION_TYPE><NORAD_CAT_ID>61596</NORAD_CAT_ID><ELEMENT_SET_NO>999</ELEMENT_SET_NO><REV_AT_EPOCH>1795</REV_AT_EPOCH><BSTAR>.72685E-3</BSTAR><MEAN_MOTION_DOT>.5997E-4</MEAN_MOTION_DOT><MEAN_MOTION_DDOT>0</MEAN_MOTION_DDOT></tleParameters></data></segment></body></omm>
<omm id="CCSDS_OMM_VERS" version="2.0">
<header><CREATION_DATE/><ORIGINATOR/></header><body><segment><metadata><OBJECT_NAME>ONEWEB-0689</OBJECT_NAME><OBJECT_ID>2024-188D</OBJECT_ID><CENTER_NAME>EARTH</CENTER_NAME><REF_FRAME>TEME</REF_FRAME><TIME_SYSTEM>UTC</TIME_SYSTEM><MEAN_ELEMENT_THEORY>SGP4</MEAN_ELEMENT_THEORY></metadata><data><meanElements><EPOCH>2025-01-29T22:00:00.999936</EPOCH><MEAN_MOTION>14.44091811</MEAN_MOTION><ECCENTRICITY>.000115</ECCENTRICITY><INCLINATION>86.8280</INCLINATION><RA_OF_ASC_NODE>127.4908</RA_OF_ASC_NODE><ARG_OF_PERICENTER>183.5847</ARG_OF_PERICENTER><MEAN_ANOMALY>158.7093</MEAN_ANOMALY></meanElements><tleParameters><EPHEMERIS_TYPE>0</EPHEMERIS_TYPE><CLASSIFICATION_TYPE>U</CLASSIFICATION_TYPE><NORAD_CAT_ID>61597</NORAD_CAT_ID><ELEMENT_SET_NO>999</ELEMENT_SET_NO><REV_AT_EPOCH>571</REV_AT_EPOCH><BSTAR>-.23967E+0</BSTAR><MEAN_MOTION_DOT>-.770834E-2</MEAN_MOTION_DOT><MEAN_MOTION_DDOT>0</MEAN_MOTION_DDOT></tleParameters></data></segment></body></omm>
<omm id="CCSDS_OMM_VERS" version="2.0">
<header><CREATION_DATE/><ORIGINATOR/></header><body><segment><metadata><OBJECT_NAME>ONEWEB-0690</OBJECT_NAME><OBJECT_ID>2024-188E</OBJECT_ID><CENTER_NAME>EARTH</CENTER_NAME><REF_FRAME>TEME</REF_FRAME><TIME_SYSTEM>UTC</TIME_SYSTEM><MEAN_ELEMENT_THEORY>SGP4</MEAN_ELEMENT_THEORY></metadata><data><meanElements><EPOCH>2025-01-30T06:00:02.000160</EPOCH><MEAN_MOTION>14.53063850</MEAN_MOTION><ECCENTRICITY>.0005342</ECCENTRICITY><INCLINATION>86.8462</INCLINATION><RA_OF_ASC_NODE>127.3967</RA_OF_ASC_NODE><ARG_OF_PERICENTER>191.3846</ARG_OF_PERICENTER><MEAN_ANOMALY>275.8117</MEAN_ANOMALY></meanElements><tleParameters><EPHEMERIS_TYPE>0</EPHEMERIS_TYPE><CLASSIFICATION_TYPE>U</CLASSIFICATION_TYPE><NORAD_CAT_ID>61598</NORAD_CAT_ID><ELEMENT_SET_NO>999</ELEMENT_SET_NO><REV_AT_EPOCH>1615</REV_AT_EPOCH><BSTAR>-.12419E+0</BSTAR><MEAN_MOTION_DOT>-.485632E-2</MEAN_MOTION_DOT><MEAN_MOTION_DDOT>0</MEAN_MOTION_DDOT></tleParameters></data></segment></body></omm>
<omm id="CCSDS_OMM_VERS" version="2.0">
<header><CREATION_DATE/><ORIGINATOR/></header><body><segment><metadata><OBJECT_NAME>ONEWEB-0691</OBJECT_NAME><OBJECT_ID>2024-188F</OBJECT_ID><CENTER_NAME>EARTH</CENTER_NAME><REF_FRAME>TEME</REF_FRAME><TIME_SYSTEM>UTC</TIME_SYSTEM><MEAN_ELEMENT_THEORY>SGP4</MEAN_ELEMENT_THEORY></metadata><data><meanElements><EPOCH>2025-01-30T04:00:01.999584</EPOCH><MEAN_MOTION>14.45861182</MEAN_MOTION><ECCENTRICITY>.0004171</ECCENTRICITY><INCLINATION>86.8323</INCLINATION><RA_OF_ASC_NODE>127.4559</RA_OF_ASC_NODE><ARG_OF_PERICENTER>194.3826</ARG_OF_PERICENTER><MEAN_ANOMALY>177.7901</MEAN_ANOMALY></meanElements><tleParameters><EPHEMERIS_TYPE>0</EPHEMERIS_TYPE><CLASSIFICATION_TYPE>U</CLASSIFICATION_TYPE><NORAD_CAT_ID>61599</NORAD_CAT_ID><ELEMENT_SET_NO>999</ELEMENT_SET_NO><REV_AT_EPOCH>1630</REV_AT_EPOCH><BSTAR>-.21643E+0</BSTAR><MEAN_MOTION_DOT>-.724463E-2</MEAN_MOTION_DOT><MEAN_MOTION_DDOT>0</MEAN_MOTION_DDOT></tleParameters></data></segment></body></omm>
<omm id="CCSDS_OMM_VERS" version="2.0">
<header><CREATION_DATE/><ORIGINATOR/></header><body><segment><metadata><OBJECT_NAME>ONEWEB-0692</OBJECT_NAME><OBJECT_ID>2024-188G</OBJECT_ID><CENTER_NAME>EARTH</CENTER_NAME><REF_FRAME>TEME</REF_FRAME><TIME_SYSTEM>UTC</TIME_SYSTEM><MEAN_ELEMENT_THEORY>SGP4</MEAN_ELEMENT_THEORY></metadata><data><meanElements><EPOCH>2025-01-30T06:00:02.000160</EPOCH><MEAN_MOTION>14.44703516</MEAN_MOTION><ECCENTRICITY>.0001188</ECCENTRICITY><INCLINATION>86.8389</INCLINATION><RA_OF_ASC_NODE>127.4118</RA_OF_ASC_NODE><ARG_OF_PERICENTER>202.8911</ARG_OF_PERICENTER><MEAN_ANOMALY>77.2034</MEAN_ANOMALY></meanElements><tleParameters><EPHEMERIS_TYPE>0</EPHEMERIS_TYPE><CLASSIFICATION_TYPE>U</CLASSIFICATION_TYPE><NORAD_CAT_ID>61600</NORAD_CAT_ID><ELEMENT_SET_NO>999</ELEMENT_SET_NO><REV_AT_EPOCH>1625</REV_AT_EPOCH><BSTAR>-.19496E+0</BSTAR><MEAN_MOTION_DOT>-.636046E-2</MEAN_MOTION_DOT><MEAN_MOTION_DDOT>0</MEAN_MOTION_DDOT></tleParameters></data></segment></body></omm>
<omm id="CCSDS_OMM_VERS" version="2.0">
<header><CREATION_DATE/><ORIGINATOR/></header><body><segment><metadata><OBJECT_NAME>ONEWEB-0693</OBJECT_NAME><OBJECT_ID>2024-188H</OBJECT_ID><CENTER_NAME>EARTH</CENTER_NAME><REF_FRAME>TEME</REF_FRAME><TIME_SYSTEM>UTC</TIME_SYSTEM><MEAN_ELEMENT_THEORY>SGP4</MEAN_ELEMENT_THEORY></metadata><data><meanElements><EPOCH>2025-01-29T12:45:49.077792</EPOCH><MEAN_MOTION>14.83470868</MEAN_MOTION><ECCENTRICITY>.0001442</ECCENTRICITY><INCLINATION>86.5716</INCLINATION><RA_OF_ASC_NODE>126.9523</RA_OF_ASC_NODE><ARG_OF_PERICENTER>167.1342</ARG_OF_PERICENTER><MEAN_ANOMALY>192.9918</MEAN_ANOMALY></meanElements><tleParameters><EPHEMERIS_TYPE>0</EPHEMERIS_TYPE><CLASSIFICATION_TYPE>U</CLASSIFICATION_TYPE><NORAD_CAT_ID>61601</NORAD_CAT_ID><ELEMENT_SET_NO>999</ELEMENT_SET_NO><REV_AT_EPOCH>1798</REV_AT_EPOCH><BSTAR>.74231E-3</BSTAR><MEAN_MOTION_DOT>.6124E-4</MEAN_MOTION_DOT><MEAN_MOTION_DDOT>0</MEAN_MOTION_DDOT></tleParameters></data></segment></body></omm>
<omm id="CCSDS_OMM_VERS" version="2.0">
<header><CREATION_DATE/><ORIGINATOR/></header><body><segment><metadata><OBJECT_NAME>ONEWEB-0695</OBJECT_NAME><OBJECT_ID>2024-188J</OBJECT_ID><CENTER_NAME>EARTH</CENTER_NAME><REF_FRAME>TEME</REF_FRAME><TIME_SYSTEM>UTC</TIME_SYSTEM><MEAN_ELEMENT_THEORY>SGP4</MEAN_ELEMENT_THEORY></metadata><data><meanElements><EPOCH>2025-01-30T06:00:02.000160</EPOCH><MEAN_MOTION>14.44564487</MEAN_MOTION><ECCENTRICITY>.0001722</ECCENTRICITY><INCLINATION>86.8331</INCLINATION><RA_OF_ASC_NODE>127.4139</RA_OF_ASC_NODE><ARG_OF_PERICENTER>165.6455</ARG_OF_PERICENTER><MEAN_ANOMALY>125.9648</MEAN_ANOMALY></meanElements><tleParameters><EPHEMERIS_TYPE>0</EPHEMERIS_TYPE><CLASSIFICATION_TYPE>U</CLASSIFICATION_TYPE><NORAD_CAT_ID>61602</NORAD_CAT_ID><ELEMENT_SET_NO>999</ELEMENT_SET_NO><REV_AT_EPOCH>1628</REV_AT_EPOCH><BSTAR>-.22726E+0</BSTAR><MEAN_MOTION_DOT>-.739825E-2</MEAN_MOTION_DOT><MEAN_MOTION_DDOT>0</MEAN_MOTION_DDOT></tleParameters></data></segment></body></omm>

</ndm>
