ONEWEB-0687             
1 61595U 24188B   25030.00027414  .00005898  00000+0  71464-3 0  9991
2 61595  86.5791 126.8255 0003510 193.8251 166.2877 14.83476413 16332
ONEWEB-0688             
1 61596U 24188C   25029.32905524  .00005997  00000+0  72685-3 0  9998
2 61596  86.5799 127.1339 0002851 195.2187 164.8951 14.83470269 17958
ONEWEB-0689             
1 61597U 24188D   25029.91667824 -.00770834  00000+0 -23967+0 0  9998
2 61597  86.8280 127.4908 0001150 183.5847 158.7093 14.44091811  5715
ONEWEB-0690             
1 61598U 24188E   25030.25002315 -.00485632  00000+0 -12419+0 0  9995
2 61598  86.8462 127.3967 0005342 191.3846 275.8117 14.53063850 16155
ONEWEB-0691             
1 61599U 24188F   25030.16668981 -.00724463  00000+0 -21643+0 0  9990
2 61599  86.8323 127.4559 0004171 194.3826 177.7901 14.45861182 16303
ONEWEB-0692             
1 61600U 24188G   25030.25002315 -.00636046  00000+0 -19496+0 0  9998
2 61600  86.8389 127.4118 0001188 202.8911  77.2034 14.44703516 16254
ONEWEB-0693             
1 61601U 24188H   25029.53181803  .00006124  00000+0  74231-3 0  9996
2 61601  86.5716 126.9523 0001442 167.1342 192.9918 14.83470868 17985
ONEWEB-0695             
1 61602U 24188J   25030.25002315 -.00739825  00000+0 -22726+0 0  9999
2 61602  86.8331 127.4139 0001722 165.6455 125.9648 14.44564487 16286
